ORBCOMM FM103 [+]       
1 40091U 14040F   24014.18431256  .00001477  00000+0  36853-3 0  9990
2 40091  47.0074 309.6994 0001691  33.2592 326.8399 14.56208620488261
ORBCOMM FM114 [+]       
1 41179U 15081A   24014.90483227  .00001591  00000+0  39411-3 0  9999
2 41179  47.0012 215.6285 0001471 138.0772 222.0225 14.56204675428737
ORBCOMM FM119 [-]       
1 41180U 15081B   24014.66752998  .00001706  00000+0  41971-3 0  9990
2 41180  47.0007 125.9356 0001955 217.6955 142.3793 14.56199548429950
ORBCOMM FM105 [-]       
1 41181U 15081C   24014.21672668  .00000737  00000+0  25831-3 0  9997
2 41181  47.0023  84.3267 0001687 181.1225 178.9652 14.44181838425567
ORBCOMM FM110 [+]       
1 41182U 15081D   24014.67592977  .00001291  00000+0  32692-3 0  9991
2 41182  47.0003 216.1227 0001952 297.5876  62.4811 14.56196202428578
ORBCOMM FM118 [+]       
1 41183U 15081E   24014.92762835  .00001092  00000+0  28217-3 0  9999
2 41183  47.0019 215.2199 0002060 290.6537  69.4127 14.56198751428717
ORBCOMM FM112 [+]       
1 41184U 15081F   24014.30253881  .00001813  00000+0  44398-3 0  9997
2 41184  46.9987 126.8972 0001669 205.9591 154.1210 14.56184523429841
ORBCOMM FM113 [+]       
1 41185U 15081G   24014.41649293  .00001800  00000+0  44092-3 0  9993
2 41185  47.0007 126.6038 0001647 228.0165 132.0579 14.56181620429845
